#cP2014  6 29  0  0  0.00000000      96 ORBIT IGb08 HLM  IGS
## 1799      0.00000000   900.00000000 56837 0.0000000000000
+   32   G01G02G03G04G05G06G07G08G09G10G11G12G13G14G15G16G17
+        G18G19G20G21G22G23G24G25G26G27G28G29G30G31G32  0  0
+          0  0  0  0  0  0  0  0  0  0  0  0  0  0  0  0  0
+          0  0  0  0  0  0  0  0  0  0  0  0  0  0  0  0  0
+          0  0  0  0  0  0  0  0  0  0  0  0  0  0  0  0  0
++         2  2  3  2  2  3  2  2  3  2  2  2  2  2  2  2  2
++         2  2  2  2  2  2  2  2  2  2  2  2  2  2  2  0  0
++         0  0  0  0  0  0  0  0  0  0  0  0  0  0  0  0  0
++         0  0  0  0  0  0  0  0  0  0  0  0  0  0  0  0  0
++         0  0  0  0  0  0  0  0  0  0  0  0  0  0  0  0  0
%c G  cc GPS ccc cccc cccc cccc cccc ccccc ccccc ccccc ccccc
%c cc cc ccc ccc cccc cccc cccc cccc ccccc ccccc ccccc ccccc
%f  1.2500000  1.025000000  0.00000000000  0.000000000000000
%f  0.0000000  0.000000000  0.00000000000  0.000000000000000
%i    0    0    0    0      0      0      0      0         0
%i    0    0    0    0      0      0      0      0         0
/* FINAL ORBIT COMBINATION FROM WEIGHTED AVERAGE OF:        
/* cod emr esa gfz grg jpl mit ngs sio                      
/* REFERENCED TO IGS TIME (IGST) AND TO WEIGHTED MEAN POLE: 
/* PCV:IGS08_1793 OL/AL:FES2004  NONE     Y  ORB:CMB CLK:CMB
*  2014  6 29 16 30  0.00000000
PG01    167.820347 -15968.762856 -21233.394530     16.504142  6  4  8  98       
PG02 -21074.941243  14315.548292   6839.087454    503.901138  7  9  6 130       
PG03   6083.241009 -24172.574827   8404.643301    384.137618  5  8  5  60       
PG04 -24656.885816   1798.548206 -10307.801689      7.359140  6  7  2  91       
PG05 -11352.472386  10722.359614  21458.456654   -362.038371  4  7  2  88       
PG06 -25312.362158   6605.550822  -4561.071780      3.809560 12 10  6 104       
PG07 -14688.725380  -9304.816769  20250.244879    363.109215  6  6  3 103       
PG08 -20806.062012  -5463.258691  16138.260424     14.463892  5  5  6 111       
PG09 -23865.514078   1173.678799  11291.071629     89.391984  7 10 11 153       
PG10 -21960.520196  -4645.668665  14177.853598   -131.639835  4  6  1 125       
PG11   5334.632047 -21004.008461 -15728.231465   -501.252717  7  7  5 141       
PG12   5930.166761  19833.910744 -16839.914238    214.768818  7  7  5 102       
PG13  -5795.246873 -20249.745450  15944.273146    -15.451043  6  8  5 119       
PG14  14667.415017   2705.240482 -21750.316649    159.094854  5  4  3 107       
PG15  -3756.731976  26104.943284   1117.101193   -188.108996  8  6  7 102       
PG16  11374.634630  -9332.616114  22074.297023   -210.415163  7  8  6 103       
PG17 -14751.845110  -2194.522495 -21713.237698   -105.060413  4  6  5 114       
PG18  20494.964287  17159.651153   1200.663406    328.504637  6  7  3 102       
PG19   8200.959465 -24820.439604   2853.808411   -465.427716  7  8  3 102       
PG20  -9510.501773 -20138.287884 -14708.729392    205.230251  7  8  2  96       
PG21  18669.677127   7157.183746  18333.978529   -369.798619  5  7  4  94       
PG22  22996.545046   7543.237147 -10910.090578    246.145539  5  4  6  98       
PG23   -787.831544 -25474.280144   6749.967915    -32.603116  7  9  7 102       
PG24  -4930.864873  17037.981695 -19763.716277    -30.970534  7  8  7 110       
PG25  16551.459358  19530.969440  -7406.337721     24.917655  5  3  5 100       
PG26 -12372.299824  20665.781790  10207.353298     30.803708  8  7  7 100       
PG27  12439.130224 -18996.708399  13714.926983     -6.178910  9  9  9 103       
PG28 -21772.861782 -12759.435467  -7882.877345    365.920797  5  8  6  53       
PG29   6715.008996  20471.052766  15599.902202    543.148392  6  7  4 113       
PG30 -22431.594500  -3320.120690  13853.297129    -35.473025  3  7  6  94       
PG31  25578.504998  -7188.163325  -2757.080014    333.787675  6  7  5 122       
PG32   3666.605414 -16719.307295 -20382.745032   -396.248952  5  5  3 119       
*  2014  6 29 16 45  0.00000000
PG01   2387.997881 -16825.926753 -20407.818576     16.504971  6  3  8 118       
PG02 -21764.149710  14259.989009   4092.361310    503.902931  7  9  7 132       
PG03   6430.192319 -22999.203676  10915.012359    384.143215  4  8  5  79       
PG04 -23593.766530   1059.660922 -12672.361028      7.359163  6  7     97       
PG05 -13294.370735   9240.798285  21043.832295   -362.035659  4  7  2  95       
PG06 -24788.436802   6109.003037  -7309.199298      3.807131 12 10  7  94       
PG07 -12534.670599 -10234.334429  21199.837229    363.113490  6  7  4  98       
PG08 -19000.773090  -6051.690362  18008.587182     14.463177  5  5  6 114       
PG09 -22553.709879    439.576184  13659.830827     89.451772  7  9 10 157       
PG10 -23041.708910  -5759.778926  11970.332981   -131.641249  3  6  1 123       
PG11   6771.825941 -21861.320029 -13812.433693   -501.255380  7  8  5 143       
PG12   4316.619161  18647.839201 -18583.262778    214.771256  7  7  5 109       
PG13  -5250.040371 -21896.320471  13818.073981    -15.454623  6  8  5 116       
PG14  14181.226259   5186.030458 -21637.193919    159.091636  5  4  4 107       
PG15  -4077.210354  25780.814899   3921.092529   -188.111225  8  6  7  94       
PG16  13282.828703  -7711.249369  21662.896499   -210.413262  6  8  5 108       
PG17 -14347.261864  -4694.032672 -21608.837424   -105.062857  5  6  5 121       
PG18  20106.168641  17278.098348   3944.958477    328.507056  6  7  3 107       
PG19   8358.508834 -24263.297040   5691.479515   -465.429490  6  8  4  95       
PG20  -7903.225054 -19366.345566 -16593.458140    205.233513  7  8  2  87       
PG21  16843.722788   8099.174603  19669.116836   -369.800621  5  6  4  98       
PG22  23727.946471   8469.006006  -8449.609230    246.148447  6  4  5  90       
PG23   -410.097558 -26040.469634   3977.428665    -32.605831  7  9  7 108       
PG24  -6979.665271  17805.829325 -18413.816515    -30.970379  7  8  7 106       
PG25  15652.165001  19091.892812 -10048.588786     24.917677  5  4  6  89       
PG26 -12284.529674  19243.407229  12670.297126     30.792584  7  7  7  99       
PG27  12429.336547 -17293.439016  15820.094295     -6.176177  9  8  9  94       
PG28 -22278.214708 -13417.644419  -5112.993433    365.923357  5  8  6  96       
PG29   6271.574089  22072.661451  13452.005304    543.150883  6  8  4 118       
PG30 -20879.418173  -4048.457376  15925.821580    -35.479139  3  7  6 116       
PG31  25190.215545  -6840.591611  -5577.111827    333.787521  5  6  5 118       
PG32   5484.385221 -15182.352744 -21112.985478   -396.241097  5  5  3 107       
*  2014  6 29 17  0  0.00000000
PG01   4460.371338 -17747.623051 -19230.973205     16.505797  6  4  9 129       
PG02 -22177.499189  14086.310692   1273.452634    503.904942  6  9  7 127       
PG03   6861.436393 -21565.798337  13230.935899    384.147055  5  8  6 140       
PG04 -22344.486514    155.575817 -14824.686571      7.358694  6  6    101       
PG05 -15249.984394   7895.783564  20266.746926   -362.032970  4  7  2 113       
PG06 -24019.829401   5448.464776  -9931.466252      3.804573 11 10  7  94       
PG07 -10353.620785 -11318.636121  21789.118852    363.117126  6  7  5 103       
PG08 -17049.683908  -6812.306529  19579.547593     14.463991  5  5  6 118       
PG09 -21050.988068   -485.309132  15788.395346     89.511751  7  9 10 157       
PG10 -23959.569919  -6668.478976   9557.608384   -131.643755  3  5  2 127       
PG11   8017.475679 -22619.482366 -11663.477208   -501.257951  7  8  5 113       
PG12   2491.636646  17450.930757 -20011.030579    214.773375  7  7  5 116       
PG13  -4837.067826 -23316.705934  11450.240197    -15.458012  6  8  5 115       
PG14  13832.026494   7652.921946 -21144.327324    159.088477  5  4  4 117       
PG15  -4405.901410  25157.571089   6656.313712   -188.112847  8  6  7 100       
PG16  15222.289468  -6242.998919  20878.535989   -210.411381  5  7  5 117       
PG17 -14078.904340  -7175.260500 -21124.087747   -105.065769  5  6  5 116       
PG18  19472.470473  17248.321060   6623.207840    328.508699  6  8  3  96       
PG19   8496.880303 -23398.691725   8428.100428   -465.431397  6  7  5 105       
PG20  -6093.061543 -18573.827076 -18197.070122    205.237119  6  8  2  94       
PG21  14951.552396   9189.466325  20686.715232   -369.802812  5  6  5 106       
PG22  24262.184831   9202.320166  -5843.892799    246.151272  6  2  5 105       
PG23    -81.516495 -26305.332304   1134.767810    -32.608490  7  9  7 104       
PG24  -8835.435126  18599.726921 -16746.644118    -30.970959  7  8  7 118       
PG25  14488.536153  18545.020951 -12519.724230     24.917670  5  5  5  83       
PG26 -12231.878871  17545.653647  14903.716299     30.781360  7  7  7  98       
PG27  12496.527132 -15369.348175  17652.079811     -6.173438  8  7  8  90       
PG28 -22564.672120 -13848.900460  -2254.491742    365.925605  4  8  6  92       
PG29   5942.736337  23441.300175  11073.603284    543.152884  6  8  4 105       
PG30 -19164.133615  -4939.279249  17724.582392    -35.485174  3  7  6 115       
PG31  24538.452737  -6337.958920  -8302.540087    333.787284  5  5  5 125       
PG32   7430.053274 -13697.021754 -21480.619475   -396.233534  5  5  3 114       
EOF
